[{"OBJECT_NAME":"STARLINK-30136","OBJECT_ID":"2023-079X","EPOCH":"2026-03-09T22:00:01.999584","MEAN_MOTION":15.19398117,"ECCENTRICITY":0.00021819,"INCLINATION":42.9997,"RA_OF_ASC_NODE":105.423,"ARG_OF_PERICENTER":293.1714,"MEAN_ANOMALY":139.2854,"EPHEMERIS_TYPE":0,"CLASSIFICATION_TYPE":"U","NORAD_CAT_ID":56844,"ELEMENT_SET_NO":999,"REV_AT_EPOCH":573,"BSTAR":0.0032058096,"MEAN_MOTION_DOT":0.00069572,"MEAN_MOTION_DDOT":0},{"OBJECT_NAME":"FENGYUN 1C DEB","OBJECT_ID":"1999-025DVA","EPOCH":"2026-03-08T04:27:49.439232","MEAN_MOTION":15.15496966,"ECCENTRICITY":0.00338373,"INCLINATION":98.8203,"RA_OF_ASC_NODE":206.4896,"ARG_OF_PERICENTER":4.2711,"MEAN_ANOMALY":355.88,"EPHEMERIS_TYPE":0,"CLASSIFICATION_TYPE":"U","NORAD_CAT_ID":36225,"ELEMENT_SET_NO":999,"REV_AT_EPOCH":68062,"BSTAR":0.0036229129,"MEAN_MOTION_DOT":0.00070122,"MEAN_MOTION_DDOT":0}]
